start=new Date('2022-09-14T00:00:00.000Z').valueOf();
sats=[{"MEAN_ANOMALY":"238.1960","CLASSIFICATION_TYPE":"U","RA_OF_ASC_NODE":"149.0287","PERIOD":"91.527","FILE":"3573088","OBJECT_TYPE":"PAYLOAD","INCLINATION":"53.2164","LAUNCH_DATE":"2022-07-24","MEAN_MOTION":"15.73298078","TIME_SYSTEM":"UTC","DECAY_DATE":null,"SEMIMAJOR_AXIS":"6727.616","BSTAR":"-0.00210440000000","OBJECT_NAME":"STARLINK-4165","REF_FRAME":"TEME","REV_AT_EPOCH":"130","ELEMENT_SET_NO":"999","ECCENTRICITY":"0.00017250","ARG_OF_PERICENTER":"41.3040","PERIAPSIS":"348.320","RCS_SIZE":"LARGE","MEAN_ELEMENT_THEORY":"SGP4","TLE_LINE1":"1 53286U 22086AW  22256.91667824 -.00287327  00000-0 -21044-2 0  9996","SITE":"AFETR","OBJECT_ID":"2022-086AW","COUNTRY_CODE":"US","NORAD_CAT_ID":"53286","APOAPSIS":"350.641","MEAN_MOTION_DOT":"-0.00287327","TLE_LINE2":"2 53286  53.2164 149.0287 0001725  41.3040 238.1960 15.73298078  1308","EPHEMERIS_TYPE":"0","GP_ID":"212538569","CENTER_NAME":"EARTH","MEAN_MOTION_DDOT":"0.0000000000000","EPOCH":"2022-09-13T22:00:00.999936"},{"TLE_LINE1":"1 53287U 22086AX  22256.91667824 -.00252528  00000-0 -18397-2 0  9999","SITE":"AFETR","OBJECT_ID":"2022-086AX","COUNTRY_CODE":"US","NORAD_CAT_ID":"53287","APOAPSIS":"350.763","MEAN_MOTION_DOT":"-0.00252528","TLE_LINE2":"2 53287  53.2156 149.0239 0001993  19.6662 262.1632 15.73318657  1301","EPHEMERIS_TYPE":"0","GP_ID":"212538411","CENTER_NAME":"EARTH","MEAN_MOTION_DDOT":"0.0000000000000","EPOCH":"2022-09-13T22:00:00.999936","MEAN_ANOMALY":"262.1632","CLASSIFICATION_TYPE":"U","RA_OF_ASC_NODE":"149.0239","PERIOD":"91.526","OBJECT_TYPE":"PAYLOAD","FILE":"3573088","INCLINATION":"53.2156","LAUNCH_DATE":"2022-07-24","MEAN_MOTION":"15.73318657","TIME_SYSTEM":"UTC","DECAY_DATE":null,"SEMIMAJOR_AXIS":"6727.557","BSTAR":"-0.00183970000000","REF_FRAME":"TEME","OBJECT_NAME":"STARLINK-4107","REV_AT_EPOCH":"130","ELEMENT_SET_NO":"999","ARG_OF_PERICENTER":"19.6662","ECCENTRICITY":"0.00019930","PERIAPSIS":"348.081","RCS_SIZE":"LARGE","MEAN_ELEMENT_THEORY":"SGP4"},{"TLE_LINE2":"2 53288  53.2158 149.0352 0001934  29.5454 250.5037 15.73214910  1301","CENTER_NAME":"EARTH","MEAN_MOTION_DDOT":"0.0000000000000","EPOCH":"2022-09-13T22:00:00.999936","GP_ID":"212538098","EPHEMERIS_TYPE":"0","OBJECT_ID":"2022-086AY","TLE_LINE1":"1 53288U 22086AY  22256.91667824 -.00050090  00000-0 -35434-3 0  9992","SITE":"AFETR","MEAN_MOTION_DOT":"-0.00050090","APOAPSIS":"351.019","NORAD_CAT_ID":"53288","COUNTRY_CODE":"US","PERIAPSIS":"348.416","REV_AT_EPOCH":"130","ELEMENT_SET_NO":"999","ECCENTRICITY":"0.00019340","ARG_OF_PERICENTER":"29.5454","DECAY_DATE":null,"TIME_SYSTEM":"UTC","SEMIMAJOR_AXIS":"6727.853","BSTAR":"-0.00035434000000","REF_FRAME":"TEME","OBJECT_NAME":"STARLINK-4162","MEAN_MOTION":"15.73214910","MEAN_ELEMENT_THEORY":"SGP4","RCS_SIZE":"LARGE","RA_OF_ASC_NODE":"149.0352","CLASSIFICATION_TYPE":"U","MEAN_ANOMALY":"250.5037","LAUNCH_DATE":"2022-07-24","INCLINATION":"53.2158","FILE":"3573088","OBJECT_TYPE":"PAYLOAD","PERIOD":"91.532"},{"RCS_SIZE":"LARGE","MEAN_ELEMENT_THEORY":"SGP4","MEAN_MOTION":"15.73323426","DECAY_DATE":null,"TIME_SYSTEM":"UTC","SEMIMAJOR_AXIS":"6727.543","OBJECT_NAME":"STARLINK-4176","BSTAR":"-0.00197640000000","REF_FRAME":"TEME","REV_AT_EPOCH":"130","ARG_OF_PERICENTER":"26.0558","ELEMENT_SET_NO":"999","ECCENTRICITY":"0.00018030","PERIAPSIS":"348.195","PERIOD":"91.526","OBJECT_TYPE":"PAYLOAD","FILE":"3573088","INCLINATION":"53.2165","LAUNCH_DATE":"2022-07-24","MEAN_ANOMALY":"256.9807","CLASSIFICATION_TYPE":"U","RA_OF_ASC_NODE":"149.0238","EPHEMERIS_TYPE":"0","GP_ID":"212538256","CENTER_NAME":"EARTH","EPOCH":"2022-09-13T22:00:00.999936","MEAN_MOTION_DDOT":"0.0000000000000","TLE_LINE2":"2 53289  53.2165 149.0238 0001803  26.0558 256.9807 15.73323426  1303","COUNTRY_CODE":"US","NORAD_CAT_ID":"53289","APOAPSIS":"350.621","MEAN_MOTION_DOT":"-0.00270713","SITE":"AFETR","TLE_LINE1":"1 53289U 22086AZ  22256.91667824 -.00270713  00000-0 -19764-2 0  9996","OBJECT_ID":"2022-086AZ"},{"OBJECT_ID":"2022-086BA","SITE":"AFETR","TLE_LINE1":"1 53290U 22086BA  22256.91667824 -.00246490  00000-0 -17968-2 0  9997","NORAD_CAT_ID":"53290","APOAPSIS":"350.800","MEAN_MOTION_DOT":"-0.00246490","COUNTRY_CODE":"US","TLE_LINE2":"2 53290  53.2163 149.0251 0001915  30.0331 251.2165 15.73287151  1305","CENTER_NAME":"EARTH","MEAN_MOTION_DDOT":"0.0000000000000","EPOCH":"2022-09-13T22:00:00.999936","EPHEMERIS_TYPE":"0","GP_ID":"212538786","RA_OF_ASC_NODE":"149.0251","MEAN_ANOMALY":"251.2165","CLASSIFICATION_TYPE":"U","INCLINATION":"53.2163","LAUNCH_DATE":"2022-07-24","PERIOD":"91.528","FILE":"3573088","OBJECT_TYPE":"PAYLOAD","REV_AT_EPOCH":"130","ECCENTRICITY":"0.00019150","ELEMENT_SET_NO":"999","ARG_OF_PERICENTER":"30.0331","PERIAPSIS":"348.223","MEAN_MOTION":"15.73287151","TIME_SYSTEM":"UTC","DECAY_DATE":null,"REF_FRAME":"TEME","SEMIMAJOR_AXIS":"6727.647","BSTAR":"-0.00179680000000","OBJECT_NAME":"STARLINK-4149","MEAN_ELEMENT_THEORY":"SGP4","RCS_SIZE":"LARGE"},{"OBJECT_ID":"2022-086BB","SITE":"AFETR","TLE_LINE1":"1 53291U 22086BB  22256.91667824 -.00028236  00000-0 -19727-3 0  9990","NORAD_CAT_ID":"53291","MEAN_MOTION_DOT":"-0.00028236","APOAPSIS":"351.063","COUNTRY_CODE":"US","TLE_LINE2":"2 53291  53.2148 149.0285 0002008  36.7875 246.8092 15.73216797  1303","MEAN_MOTION_DDOT":"0.0000000000000","EPOCH":"2022-09-13T22:00:00.999936","CENTER_NAME":"EARTH","EPHEMERIS_TYPE":"0","GP_ID":"212538628","RA_OF_ASC_NODE":"149.0285","MEAN_ANOMALY":"246.8092","CLASSIFICATION_TYPE":"U","INCLINATION":"53.2148","LAUNCH_DATE":"2022-07-24","PERIOD":"91.532","FILE":"3573088","OBJECT_TYPE":"PAYLOAD","ARG_OF_PERICENTER":"36.7875","ELEMENT_SET_NO":"999","ECCENTRICITY":"0.00020080","REV_AT_EPOCH":"130","PERIAPSIS":"348.361","MEAN_MOTION":"15.73216797","SEMIMAJOR_AXIS":"6727.847","REF_FRAME":"TEME","BSTAR":"-0.00019727000000","OBJECT_NAME":"STARLINK-4166","DECAY_DATE":null,"TIME_SYSTEM":"UTC","MEAN_ELEMENT_THEORY":"SGP4","RCS_SIZE":"LARGE"},{"MEAN_ELEMENT_THEORY":"SGP4","RCS_SIZE":"LARGE","ARG_OF_PERICENTER":"37.3390","ELEMENT_SET_NO":"999","ECCENTRICITY":"0.00019970","REV_AT_EPOCH":"130","PERIAPSIS":"348.492","MEAN_MOTION":"15.73173503","OBJECT_NAME":"STARLINK-4159","SEMIMAJOR_AXIS":"6727.971","BSTAR":"0.00013006000000","REF_FRAME":"TEME","TIME_SYSTEM":"UTC","DECAY_DATE":null,"INCLINATION":"53.2161","LAUNCH_DATE":"2022-07-24","PERIOD":"91.535","FILE":"3573088","OBJECT_TYPE":"PAYLOAD","RA_OF_ASC_NODE":"149.0326","MEAN_ANOMALY":"245.1275","CLASSIFICATION_TYPE":"U","MEAN_MOTION_DDOT":"0.0000000000000","EPOCH":"2022-09-13T22:00:00.999936","CENTER_NAME":"EARTH","EPHEMERIS_TYPE":"0","GP_ID":"212537682","TLE_LINE2":"2 53292  53.2161 149.0326 0001997  37.3390 245.1275 15.73173503  1302","NORAD_CAT_ID":"53292","APOAPSIS":"351.179","MEAN_MOTION_DOT":"0.00017651","COUNTRY_CODE":"US","OBJECT_ID":"2022-086BC","TLE_LINE1":"1 53292U 22086BC  22256.91667824  .00017651  00000-0  13006-3 0  9992","SITE":"AFETR"},{"PERIOD":"91.531","OBJECT_TYPE":"PAYLOAD","FILE":"3573088","INCLINATION":"53.2147","LAUNCH_DATE":"2022-07-24","MEAN_ANOMALY":"257.0011","CLASSIFICATION_TYPE":"U","RA_OF_ASC_NODE":"149.0322","RCS_SIZE":"LARGE","MEAN_ELEMENT_THEORY":"SGP4","MEAN_MOTION":"15.73242403","BSTAR":"-0.00050661000000","SEMIMAJOR_AXIS":"6727.774","OBJECT_NAME":"STARLINK-4148","REF_FRAME":"TEME","TIME_SYSTEM":"UTC","DECAY_DATE":null,"ARG_OF_PERICENTER":"27.2038","ELEMENT_SET_NO":"999","ECCENTRICITY":"0.00018550","REV_AT_EPOCH":"130","PERIAPSIS":"348.391","COUNTRY_CODE":"US","NORAD_CAT_ID":"53293","APOAPSIS":"350.887","MEAN_MOTION_DOT":"-0.00071254","SITE":"AFETR","TLE_LINE1":"1 53293U 22086BD  22256.91667824 -.00071254  00000-0 -50661-3 0  9992","OBJECT_ID":"2022-086BD","EPHEMERIS_TYPE":"0","GP_ID":"212537841","EPOCH":"2022-09-13T22:00:00.999936","MEAN_MOTION_DDOT":"0.0000000000000","CENTER_NAME":"EARTH","TLE_LINE2":"2 53293  53.2147 149.0322 0001855  27.2038 257.0011 15.73242403  1309"},{"MEAN_MOTION_DDOT":"0.0000000000000","EPOCH":"2022-09-13T22:00:00.999936","CENTER_NAME":"EARTH","GP_ID":"212538570","EPHEMERIS_TYPE":"0","TLE_LINE2":"2 53294  53.2159 149.0278 0001710  33.0107 251.8509 15.73183859  1308","MEAN_MOTION_DOT":"-0.00002983","APOAPSIS":"350.957","NORAD_CAT_ID":"53294","COUNTRY_CODE":"US","OBJECT_ID":"2022-086BE","SITE":"AFETR","TLE_LINE1":"1 53294U 22086BE  22256.91667824 -.00002983  00000-0 -16854-4 0  9993","MEAN_ELEMENT_THEORY":"SGP4","RCS_SIZE":"LARGE","PERIAPSIS":"348.656","ECCENTRICITY":"0.00017100","ELEMENT_SET_NO":"999","ARG_OF_PERICENTER":"33.0107","REV_AT_EPOCH":"130","BSTAR":"-0.00001685400000","SEMIMAJOR_AXIS":"6727.941","REF_FRAME":"TEME","OBJECT_NAME":"STARLINK-4146","DECAY_DATE":null,"TIME_SYSTEM":"UTC","MEAN_MOTION":"15.73183859","LAUNCH_DATE":"2022-07-24","INCLINATION":"53.2159","FILE":"3573088","OBJECT_TYPE":"PAYLOAD","PERIOD":"91.534","RA_OF_ASC_NODE":"149.0278","CLASSIFICATION_TYPE":"U","MEAN_ANOMALY":"251.8509"},{"MEAN_ANOMALY":"275.3982","CLASSIFICATION_TYPE":"U","RA_OF_ASC_NODE":"78.6573","PERIOD":"94.039","FILE":"3573088","OBJECT_TYPE":"PAYLOAD","INCLINATION":"53.2173","LAUNCH_DATE":"2022-08-10","MEAN_MOTION":"15.31275732","SEMIMAJOR_AXIS":"6850.142","BSTAR":"-0.04014900000000","OBJECT_NAME":"STARLINK-4522","REF_FRAME":"TEME","TIME_SYSTEM":"UTC","DECAY_DATE":null,"ELEMENT_SET_NO":"999","ARG_OF_PERICENTER":"47.6279","ECCENTRICITY":"0.00014750","REV_AT_EPOCH":"130","PERIAPSIS":"470.997","RCS_SIZE":"LARGE","MEAN_ELEMENT_THEORY":"SGP4","SITE":"AFETR","TLE_LINE1":"1 53388U 22097A   22256.91667824 -.01122538  00000-0 -40149-1 0  9990","OBJECT_ID":"2022-097A","COUNTRY_CODE":"US","NORAD_CAT_ID":"53388","MEAN_MOTION_DOT":"-0.01122538","APOAPSIS":"473.017","TLE_LINE2":"2 53388  53.2173  78.6573 0001475  47.6279 275.3982 15.31275732  1304","EPHEMERIS_TYPE":"0","GP_ID":"212538107","MEAN_MOTION_DDOT":"0.0000000000000","EPOCH":"2022-09-13T22:00:00.999936","CENTER_NAME":"EARTH"}];
